STARLINK-2274
1 18599C 21041AY  21326.19601681  .00003082  00000-0  20642-3 0  3263
2 18599  53.0546 317.8489 0001983  54.8601   0.9064 15.06408933    14
